[{"OBJECT_NAME":"STARLINK-6219","OBJECT_ID":"2023-083S","EPOCH":"2026-03-09T08:40:43.379616","MEAN_MOTION":15.02536913,"ECCENTRICITY":0.00011981,"INCLINATION":43.0042,"RA_OF_ASC_NODE":83.3325,"ARG_OF_PERICENTER":266.4693,"MEAN_ANOMALY":93.6012,"EPHEMERIS_TYPE":0,"CLASSIFICATION_TYPE":"U","NORAD_CAT_ID":56892,"ELEMENT_SET_NO":999,"REV_AT_EPOCH":15162,"BSTAR":-3.7534365e-5,"MEAN_MOTION_DOT":-7.11e-6,"MEAN_MOTION_DDOT":0},{"OBJECT_NAME":"FENGYUN 1C DEB","OBJECT_ID":"1999-025ATE","EPOCH":"2026-03-09T09:33:08.339616","MEAN_MOTION":15.01474525,"ECCENTRICITY":0.00075584,"INCLINATION":98.7312,"RA_OF_ASC_NODE":229.2263,"ARG_OF_PERICENTER":329.2571,"MEAN_ANOMALY":91.5818,"EPHEMERIS_TYPE":0,"CLASSIFICATION_TYPE":"U","NORAD_CAT_ID":30744,"ELEMENT_SET_NO":999,"REV_AT_EPOCH":99383,"BSTAR":0.0056947952,"MEAN_MOTION_DOT":0.0007432,"MEAN_MOTION_DDOT":0}]
